{"type":"FeatureCollection","features":[{"type":"Feature","properties":{"placename":"Hartley Conference Center","description":"Hackathon Central","goodfor":"hacking, eating"},"geometry":{"type":"Point","coordinates":[-122.17275381088257,37.42655393117671]}},{"type":"Feature","properties":{"placename":"Terman Park","description":"Recessed Park with Fountains","goodfor":"relaxing, contemplating"},"geometry":{"type":"Point","coordinates":[-122.1735343337059,37.42599160093063]}},{"type":"Feature","properties":{"placename":"Papua New Guineau Sculpture Garden","description":"Sculpture Garden","goodfor":"relaxing, contemplating"},"geometry":{"type":"Point","coordinates":[-122.17286646366121,37.42478385464814]}},{"type":"Feature","properties":{"placename":"Geocorner","description":"Hackathon satellite site","goodfor":"hacking, meeting"},"geometry":{"type":"Point","coordinates":[-122.17201888561247,37.42679462427152]}},{"type":"Feature","properties":{"placename":"Shriram Auditorium","description":"Opening Ceremony","goodfor":"hacking, meeting"},"geometry":{"type":"Point","coordinates":[-122.1757310628891,37.42884367928325]}},{"type":"Feature","properties":{"placename":"Google Server","description":"The original. Held together with Legos and Erector set, of course. In the basement, under stairs","goodfor":"cool thing to see"},"geometry":{"type":"Point","coordinates":[-122.1741485595703,37.42806836776632]}},{"type":"Feature","properties":{"placename":"Hewlett-Packard Garage Replica","description":"right down to the oil stains on the floor","goodfor":"cool thing to see"},"geometry":{"type":"Point","coordinates":[-122.17423975467683,37.4280215080217]}},{"type":"Feature","properties":{"placename":"Treehouse","description":"go to for food and cheap beer","goodfor":"eats & drinks"},"geometry":{"type":"Point","coordinates":[-122.17114448547363,37.4240127612939]}},{"type":"Feature","properties":{"placename":"Stanford Teaching Farm","goodfor":"chickens, relaxing, contemplating","description":"Still under construction, but quite cool."},"geometry":{"type":"Point","coordinates":[-122.1829730272293,37.42662422216049]}},{"type":"Feature","properties":{"placename":"The Oval","description":"How we find Stanford on maps","goodfor":"iconic selfies"},"geometry":{"type":"Point","coordinates":[-122.1694278717041,37.429972552574334]}},{"type":"Feature","properties":{"placename":"Cantor Art Center","description":"Amazing collections from the beginning of art to now","goodfor":"relaxing, contemplating"},"geometry":{"type":"Point","coordinates":[-122.17091381549835,37.432894764360626]}},{"type":"Feature","properties":{"placename":"Anderson Collection","description":"One of the greatest contemporary art collections in one place","goodfor":"relaxing, contemplating"},"geometry":{"type":"Point","coordinates":[-122.17075824737547,37.433729661060475]}},{"type":"Feature","properties":{"placename":"Cactus Garden","description":"cactus. lots.","goodfor":"relaxing, contemplating"},"geometry":{"type":"Point","coordinates":[-122.17107474803925,37.4358977931783]}}]}